{
  "type": "FeatureCollection",
  "features": [
    {
      "type": "Feature",
      "properties": {
        "norad_id": 66547,
        "name": "SHIJIAN-30C",
        "group": "last-30-days",
        "lat": -51.094242933771284,
        "lon": -73.60524118687097,
        "alt_km": 518.9285273869682,
        "timestamp": "2025-12-06T03:35:00.473860+00:00",
        "meta_object_name": "SHIJIAN-30C",
        "meta_object_id": "2025-266C",
        "meta_epoch": "2025-12-05T13:42:02.252160",
        "meta_mean_motion": 15.15527434,
        "meta_eccentricity": 0.0011372,
        "meta_inclination": 51.7992,
        "meta_ra_of_asc_node": 6.4614,
        "meta_arg_of_pericenter": 326.1697,
        "meta_mean_anomaly": 33.8553,
        "meta_ephemeris_type": 0,
        "meta_classification_type": "U",
        "meta_norad_cat_id": 66547,
        "meta_element_set_no": 999,
        "meta_rev_at_epoch": 249,
        "meta_bstar": 0.00098905,
        "meta_mean_motion_dot": 0.00018749,
        "meta_mean_motion_ddot": 0,
        "tle_line1": "1 66547U 25266C   25339.57085940  .00018749  00000+0  98905-3 0  9991",
        "tle_line2": "2 66547  51.7992   6.4614 0011372 326.1697  33.8553 15.15527434  2491"
      },
      "geometry": {
        "type": "Point",
        "coordinates": [
          -73.60524118687097,
          -51.094242933771284
        ]
      }
    },
    {
      "type": "Feature",
      "properties": {
        "norad_id": 66548,
        "name": "CZ-2C R/B",
        "group": "last-30-days",
        "lat": 49.79141253275021,
        "lon": 70.04579239303742,
        "alt_km": 453.66971102047773,
        "timestamp": "2025-12-06T03:35:00.473870+00:00",
        "meta_object_name": "CZ-2C R/B",
        "meta_object_id": "2025-266D",
        "meta_epoch": "2025-12-05T06:52:21.594720",
        "meta_mean_motion": 15.29936527,
        "meta_eccentricity": 0.00845405,
        "meta_inclination": 52.056,
        "meta_ra_of_asc_node": 6.7834,
        "meta_arg_of_pericenter": 147.6878,
        "meta_mean_anomaly": 212.9326,
        "meta_ephemeris_type": 0,
        "meta_classification_type": "U",
        "meta_norad_cat_id": 66548,
        "meta_element_set_no": 999,
        "meta_rev_at_epoch": 247,
        "meta_bstar": 0.00061125617,
        "meta_mean_motion_dot": 0.00019701,
        "meta_mean_motion_ddot": 0,
        "tle_line1": "1 66548U 25266D   25339.28636105  .00019701  00000+0  61126-3 0  9999",
        "tle_line2": "2 66548  52.0560   6.7834 0084540 147.6878 212.9326 15.29936527  2476"
      },
      "geometry": {
        "type": "Point",
        "coordinates": [
          70.04579239303742,
          49.79141253275021
        ]
      }
    },
    {
      "type": "Feature",
      "properties": {
        "norad_id": 66549,
        "name": "SHIJIAN-28",
        "group": "last-30-days",
        "lat": 8.315371937382695,
        "lon": -52.23968896874239,
        "alt_km": 23592.173593811458,
        "timestamp": "2025-12-06T03:35:00.473882+00:00",
        "meta_object_name": "SHIJIAN-28",
        "meta_object_id": "2025-277A",
        "meta_epoch": "2025-11-30T18:06:43.124256",
        "meta_mean_motion": 2.28019775,
        "meta_eccentricity": 0.7300519,
        "meta_inclination": 14.4344,
        "meta_ra_of_asc_node": 275.4056,
        "meta_arg_of_pericenter": 179.5026,
        "meta_mean_anomaly": 182.358,
        "meta_ephemeris_type": 0,
        "meta_classification_type": "U",
        "meta_norad_cat_id": 66549,
        "meta_element_set_no": 999,
        "meta_rev_at_epoch": 4,
        "meta_bstar": 0.00062085,
        "meta_mean_motion_dot": 6.315e-05,
        "meta_mean_motion_ddot": 0,
        "tle_line1": "1 66549U 25277A   25334.75466579  .00006315  00000+0  62085-3 0  9997",
        "tle_line2": "2 66549  14.4344 275.4056 7300519 179.5026 182.3580  2.28019775    48"
      },
      "geometry": {
        "type": "Point",
        "coordinates": [
          -52.23968896874239,
          8.315371937382695
        ]
      }
    },
    {
      "type": "Feature",
      "properties": {
        "norad_id": 66550,
        "name": "CZ-7A R/B",
        "group": "last-30-days",
        "lat": 0.5125669728845366,
        "lon": -84.82488008257725,
        "alt_km": 34206.33134594392,
        "timestamp": "2025-12-06T03:35:00.473894+00:00",
        "meta_object_name": "CZ-7A R/B",
        "meta_object_id": "2025-277B",
        "meta_epoch": "2025-12-01T03:57:29.558880",
        "meta_mean_motion": 2.40161271,
        "meta_eccentricity": 0.72362879,
        "meta_inclination": 14.4278,
        "meta_ra_of_asc_node": 275.378,
        "meta_arg_of_pericenter": 178.5774,
        "meta_mean_anomaly": 186.2906,
        "meta_ephemeris_type": 0,
        "meta_classification_type": "U",
        "meta_norad_cat_id": 66550,
        "meta_element_set_no": 999,
        "meta_rev_at_epoch": 5,
        "meta_bstar": 4.4603974e-05,
        "meta_mean_motion_dot": 0.00016399,
        "meta_mean_motion_ddot": -7.1945e-08,
        "tle_line1": "1 66550U 25277B   25335.16492545  .00016399 -71945-7  44604-4 0  9993",
        "tle_line2": "2 66550  14.4278 275.3780 7236287 178.5774 186.2906  2.40161271    57"
      },
      "geometry": {
        "type": "Point",
        "coordinates": [
          -84.82488008257725,
          0.5125669728845366
        ]
      }
    },
    {
      "type": "Feature",
      "properties": {
        "norad_id": 66551,
        "name": "UNKNOWN",
        "group": "last-30-days",
        "lat": 51.15936664541472,
        "lon": -29.288211633472034,
        "alt_km": 331.16205291679944,
        "timestamp": "2025-12-06T03:35:00.473905+00:00",
        "meta_object_name": "UNKNOWN",
        "meta_object_id": "2025-271AE",
        "meta_epoch": "2025-12-02T16:00:03.000096",
        "meta_mean_motion": 15.87051116,
        "meta_eccentricity": 7.17e-05,
        "meta_inclination": 53.1571,
        "meta_ra_of_asc_node": 236.7807,
        "meta_arg_of_pericenter": 110.7411,
        "meta_mean_anomaly": 313.9012,
        "meta_ephemeris_type": 0,
        "meta_classification_type": "U",
        "meta_norad_cat_id": 66551,
        "meta_element_set_no": 999,
        "meta_rev_at_epoch": 262,
        "meta_bstar": -0.0074303,
        "meta_mean_motion_dot": -0.01709685,
        "meta_mean_motion_ddot": 0,
        "tle_line1": "1 66551U 25271AE  25336.66670139 -.01709685  00000+0 -74303-2 0  9993",
        "tle_line2": "2 66551  53.1571 236.7807 0000717 110.7411 313.9012 15.87051116  2624"
      },
      "geometry": {
        "type": "Point",
        "coordinates": [
          -29.288211633472034,
          51.15936664541472
        ]
      }
    },
    {
      "type": "Feature",
      "properties": {
        "norad_id": 66554,
        "name": "GLOBAL-33",
        "group": "last-30-days",
        "lat": 24.834259209029007,
        "lon": 125.96190762104591,
        "alt_km": 464.610396289092,
        "timestamp": "2025-12-06T03:35:00.473918+00:00",
        "meta_object_name": "GLOBAL-33",
        "meta_object_id": "2025-267A",
        "meta_epoch": "2025-12-05T07:03:58.397760",
        "meta_mean_motion": 15.31371294,
        "meta_eccentricity": 0.00052253,
        "meta_inclination": 42.0193,
        "meta_ra_of_asc_node": 99.9672,
        "meta_arg_of_pericenter": 358.9658,
        "meta_mean_anomaly": 1.1168,
        "meta_ephemeris_type": 0,
        "meta_classification_type": "U",
        "meta_norad_cat_id": 66554,
        "meta_element_set_no": 999,
        "meta_rev_at_epoch": 226,
        "meta_bstar": 0.00071443326,
        "meta_mean_motion_dot": 0.00021935,
        "meta_mean_motion_ddot": 0,
        "tle_line1": "1 66554U 25267A   25339.29442590  .00021935  00000+0  71443-3 0  9996",
        "tle_line2": "2 66554  42.0193  99.9672 0005225 358.9658   1.1168 15.31371294  2260"
      },
      "geometry": {
        "type": "Point",
        "coordinates": [
          125.96190762104591,
          24.834259209029007
        ]
      }
    },
    {
      "type": "Feature",
      "properties": {
        "norad_id": 66555,
        "name": "ELECTRON KICK STAGE R/B",
        "group": "last-30-days",
        "lat": 41.147291893824836,
        "lon": 170.9936069561806,
        "alt_km": 460.84204171858255,
        "timestamp": "2025-12-06T03:35:00.473930+00:00",
        "meta_object_name": "ELECTRON KICK STAGE R/B",
        "meta_object_id": "2025-267B",
        "meta_epoch": "2025-12-04T15:15:31.817952",
        "meta_mean_motion": 15.32232828,
        "meta_eccentricity": 0.00072797,
        "meta_inclination": 42.0175,
        "meta_ra_of_asc_node": 103.6834,
        "meta_arg_of_pericenter": 353.8025,
        "meta_mean_anomaly": 6.2722,
        "meta_ephemeris_type": 0,
        "meta_classification_type": "U",
        "meta_norad_cat_id": 66555,
        "meta_element_set_no": 999,
        "meta_rev_at_epoch": 216,
        "meta_bstar": 0.0014703471,
        "meta_mean_motion_dot": 0.00046832,
        "meta_mean_motion_ddot": 0,
        "tle_line1": "1 66555U 25267B   25338.63578493  .00046832  00000+0  14703-2 0  9994",
        "tle_line2": "2 66555  42.0175 103.6834 0007279 353.8025   6.2722 15.32232828  2168"
      },
      "geometry": {
        "type": "Point",
        "coordinates": [
          170.9936069561806,
          41.147291893824836
        ]
      }
    }
  ]
}